TRANSPORTER-12 OBJECT AZ
1 62656U 25009AZ  26068.71026235  .00016057  00000+0  54903-3 0  9991
2 62656  97.3981 151.9913 0000987  45.3581 314.7740 15.30349724 63792
STARLINK-36107          
1 66979U 25288W   26068.30287971  .00023894  00000+0  87468-3 0  9992
2 66979  43.0022  26.0239 0001332 256.7609 103.3094 15.27591966 15227
